{"type": "FeatureCollection", "features": [ {"type": "Feature", "properties": {"norad_id": 31955, "name": "FENGYUN 1C DEB", "group": "fengyun-1c-debris", "lat": 59.896352677447794, "lon": -148.98175073042597, "alt_km": 684.4854531630644, "timestamp": "2025-12-16T03:53:27.341191+00:00", "meta": {"OBJECT_NAME": "FENGYUN 1C DEB", "OBJECT_ID": "1999-025CNG", "EPOCH": "2025-12-15T03:41:40.385760", "MEAN_MOTION": 14.63941392, "ECCENTRICITY": 0.00432986, "INCLINATION": 99.2811, "RA_OF_ASC_NODE": 226.2667, "ARG_OF_PERICENTER": 173.4683, "MEAN_ANOMALY": 338.0221, "EPHEMERIS_TYPE": 0, "CLASSIFICATION_TYPE": "U", "NORAD_CAT_ID": 31955, "ELEMENT_SET_NO": 999, "REV_AT_EPOCH": 96592, "BSTAR": 0.0010210804, "MEAN_MOTION_DOT": 5.359e-05, "MEAN_MOTION_DDOT": 0}, "tle": {"line1": "1 31955U 99025CNG 25349.15393965  .00005359  00000+0  10211-2 0  9990", "line2": "2 31955  99.2811 226.2667 0043298 173.4683 338.0221 14.63941392965926"}}, "geometry": {"type": "Point", "coordinates": [-148.98175073042597, 59.896352677447794]}}, {"type": "Feature", "properties": {"norad_id": 31959, "name": "FENGYUN 1C DEB", "group": "fengyun-1c-debris", "lat": -76.45187381839496, "lon": 2.7661302175963307, "alt_km": 751.1578401640154, "timestamp": "2025-12-16T03:53:27.341202+00:00", "meta": {"OBJECT_NAME": "FENGYUN 1C DEB", "OBJECT_ID": "1999-025CNL", "EPOCH": "2025-12-14T09:12:10.376352", "MEAN_MOTION": 14.46794262, "ECCENTRICITY": 0.00268536, "INCLINATION": 98.5106, "RA_OF_ASC_NODE": 219.398, "ARG_OF_PERICENTER": 150.4793, "MEAN_ANOMALY": 209.7922, "EPHEMERIS_TYPE": 0, "CLASSIFICATION_TYPE": "U", "NORAD_CAT_ID": 31959, "ELEMENT_SET_NO": 999, "REV_AT_EPOCH": 64377, "BSTAR": 0.0025952235, "MEAN_MOTION_DOT": 9.407e-05, "MEAN_MOTION_DDOT": 0}, "tle": {"line1": "1 31959U 99025CNL 25348.38345343  .00009407  00000+0  25952-2 0  9991", "line2": "2 31959  98.5106 219.3980 0026853 150.4793 209.7922 14.46794262643776"}}, "geometry": {"type": "Point", "coordinates": [2.7661302175963307, -76.45187381839496]}}, {"type": "Feature", "properties": {"norad_id": 31964, "name": "FENGYUN 1C DEB", "group": "fengyun-1c-debris", "lat": -4.607931671102495, "lon": -66.7534346972972, "alt_km": 720.7945483350632, "timestamp": "2025-12-16T03:53:27.341212+00:00", "meta": {"OBJECT_NAME": "FENGYUN 1C DEB", "OBJECT_ID": "1999-025CNR", "EPOCH": "2025-12-14T14:49:38.771040", "MEAN_MOTION": 14.58552528, "ECCENTRICITY": 0.00285311, "INCLINATION": 98.6993, "RA_OF_ASC_NODE": 112.3379, "ARG_OF_PERICENTER": 24.3598, "MEAN_ANOMALY": 335.8941, "EPHEMERIS_TYPE": 0, "CLASSIFICATION_TYPE": "U", "NORAD_CAT_ID": 31964, "ELEMENT_SET_NO": 999, "REV_AT_EPOCH": 67537, "BSTAR": 0.0020372059, "MEAN_MOTION_DOT": 9.485e-05, "MEAN_MOTION_DDOT": 0}, "tle": {"line1": "1 31964U 99025CNR 25348.61780985  .00009485  00000+0  20372-2 0  9995", "line2": "2 31964  98.6993 112.3379 0028531  24.3598 335.8941 14.58552528675371"}}, "geometry": {"type": "Point", "coordinates": [-66.7534346972972, -4.607931671102495]}}, {"type": "Feature", "properties": {"norad_id": 31966, "name": "FENGYUN 1C DEB", "group": "fengyun-1c-debris", "lat": -80.13213851420736, "lon": -151.00221337621383, "alt_km": 616.3426983699928, "timestamp": "2025-12-16T03:53:27.341222+00:00", "meta": {"OBJECT_NAME": "FENGYUN 1C DEB", "OBJECT_ID": "1999-025CNT", "EPOCH": "2025-12-14T16:16:47.947008", "MEAN_MOTION": 14.67572653, "ECCENTRICITY": 0.00860011, "INCLINATION": 99.0165, "RA_OF_ASC_NODE": 141.4675, "ARG_OF_PERICENTER": 268.825, "MEAN_ANOMALY": 90.3098, "EPHEMERIS_TYPE": 0, "CLASSIFICATION_TYPE": "U", "NORAD_CAT_ID": 31966, "ELEMENT_SET_NO": 999, "REV_AT_EPOCH": 65771, "BSTAR": 0.0010171783, "MEAN_MOTION_DOT": 6.044e-05, "MEAN_MOTION_DDOT": 0}, "tle": {"line1": "1 31966U 99025CNT 25348.67833272  .00006044  00000+0  10172-2 0  9996", "line2": "2 31966  99.0165 141.4675 0086001 268.8250  90.3098 14.67572653657712"}}, "geometry": {"type": "Point", "coordinates": [-151.00221337621383, -80.13213851420736]}}, {"type": "Feature", "properties": {"norad_id": 31972, "name": "FENGYUN 1C DEB", "group": "fengyun-1c-debris", "lat": -63.640634586408, "lon": 50.99286120564763, "alt_km": 872.1898283184464, "timestamp": "2025-12-16T03:53:27.341233+00:00", "meta": {"OBJECT_NAME": "FENGYUN 1C DEB", "OBJECT_ID": "1999-025CNZ", "EPOCH": "2025-12-14T09:36:59.055264", "MEAN_MOTION": 14.07514024, "ECCENTRICITY": 0.00768597, "INCLINATION": 99.2117, "RA_OF_ASC_NODE": 30.0813, "ARG_OF_PERICENTER": 27.2609, "MEAN_ANOMALY": 348.0684, "EPHEMERIS_TYPE": 0, "CLASSIFICATION_TYPE": "U", "NORAD_CAT_ID": 31972, "ELEMENT_SET_NO": 999, "REV_AT_EPOCH": 94984, "BSTAR": 0.00028885184, "MEAN_MOTION_DOT": 4.54e-06, "MEAN_MOTION_DDOT": 0}, "tle": {"line1": "1 31972U 99025CNZ 25348.40068351  .00000454  00000+0  28885-3 0  9992", "line2": "2 31972  99.2117  30.0813 0076859  27.2609 348.0684 14.07514024949844"}}, "geometry": {"type": "Point", "coordinates": [50.99286120564763, -63.640634586408]}}, {"type": "Feature", "properties": {"norad_id": 31974, "name": "FENGYUN 1C DEB", "group": "fengyun-1c-debris", "lat": -42.60658188756952, "lon": 8.95224833462742, "alt_km": 752.9721317457488, "timestamp": "2025-12-16T03:53:27.341244+00:00", "meta": {"OBJECT_NAME": "FENGYUN 1C DEB", "OBJECT_ID": "1999-025CPB", "EPOCH": "2025-12-14T11:46:31.823040", "MEAN_MOTION": 14.29550747, "ECCENTRICITY": 0.00714642, "INCLINATION": 98.3804, "RA_OF_ASC_NODE": 359.5517, "ARG_OF_PERICENTER": 297.5864, "MEAN_ANOMALY": 61.8073, "EPHEMERIS_TYPE": 0, "CLASSIFICATION_TYPE": "U", "NORAD_CAT_ID": 31974, "ELEMENT_SET_NO": 999, "REV_AT_EPOCH": 69447, "BSTAR": 0.0025811357, "MEAN_MOTION_DOT": 6.748e-05, "MEAN_MOTION_DDOT": 0}, "tle": {"line1": "1 31974U 99025CPB 25348.49064610  .00006748  00000+0  25811-2 0  9994", "line2": "2 31974  98.3804 359.5517 0071464 297.5864  61.8073 14.29550747694475"}}, "geometry": {"type": "Point", "coordinates": [8.95224833462742, -42.60658188756952]}}, {"type": "Feature", "properties": {"norad_id": 31978, "name": "FENGYUN 1C DEB", "group": "fengyun-1c-debris", "lat": -73.49115777759869, "lon": -65.09902955977422, "alt_km": 1190.2748749730144, "timestamp": "2025-12-16T03:53:27.341254+00:00", "meta": {"OBJECT_NAME": "FENGYUN 1C DEB", "OBJECT_ID": "1999-025CPF", "EPOCH": "2025-12-08T09:40:24.995712", "MEAN_MOTION": 13.63098344, "ECCENTRICITY": 0.0263392, "INCLINATION": 98.3802, "RA_OF_ASC_NODE": 138.0358, "ARG_OF_PERICENTER": 61.5347, "MEAN_ANOMALY": 301.2062, "EPHEMERIS_TYPE": 0, "CLASSIFICATION_TYPE": "U", "NORAD_CAT_ID": 31978, "ELEMENT_SET_NO": 999, "REV_AT_EPOCH": 91531, "BSTAR": 0.0016862469, "MEAN_MOTION_DOT": 1.637e-05, "MEAN_MOTION_DDOT": 0}, "tle": {"line1": "1 31978U 99025CPF 25342.40306708  .00001637  00000+0  16862-2 0  9998", "line2": "2 31978  98.3802 138.0358 0263392  61.5347 301.2062 13.63098344915313"}}, "geometry": {"type": "Point", "coordinates": [-65.09902955977422, -73.49115777759869]}}, {"type": "Feature", "properties": {"norad_id": 31979, "name": "FENGYUN 1C DEB", "group": "fengyun-1c-debris", "lat": -66.396204482546, "lon": -119.54223439947067, "alt_km": 828.4115430304537, "timestamp": "2025-12-16T03:53:27.341264+00:00", "meta": {"OBJECT_NAME": "FENGYUN 1C DEB", "OBJECT_ID": "1999-025CPG", "EPOCH": "2025-12-13T23:48:23.569344", "MEAN_MOTION": 13.69300547, "ECCENTRICITY": 0.02666155, "INCLINATION": 99.3765, "RA_OF_ASC_NODE": 80.5613, "ARG_OF_PERICENTER": 277.6915, "MEAN_ANOMALY": 79.4034, "EPHEMERIS_TYPE": 0, "CLASSIFICATION_TYPE": "U", "NORAD_CAT_ID": 31979, "ELEMENT_SET_NO": 999, "REV_AT_EPOCH": 57929, "BSTAR": 0.0038296702, "MEAN_MOTION_DOT": 4.222e-05, "MEAN_MOTION_DDOT": 0}, "tle": {"line1": "1 31979U 99025CPG 25347.99193946  .00004222  00000+0  38297-2 0  9995", "line2": "2 31979  99.3765  80.5613 0266615 277.6915  79.4034 13.69300547579293"}}, "geometry": {"type": "Point", "coordinates": [-119.54223439947067, -66.396204482546]}}, {"type": "Feature", "properties": {"norad_id": 31980, "name": "FENGYUN 1C DEB", "group": "fengyun-1c-debris", "lat": -17.936219921960124, "lon": -107.90147119307238, "alt_km": 1151.0504057412518, "timestamp": "2025-12-16T03:53:27.341275+00:00", "meta": {"OBJECT_NAME": "FENGYUN 1C DEB", "OBJECT_ID": "1999-025CPH", "EPOCH": "2025-12-13T11:51:29.901312", "MEAN_MOTION": 13.32151441, "ECCENTRICITY": 0.04280699, "INCLINATION": 97.6129, "RA_OF_ASC_NODE": 72.5932, "ARG_OF_PERICENTER": 111.039, "MEAN_ANOMALY": 253.7071, "EPHEMERIS_TYPE": 0, "CLASSIFICATION_TYPE": "U", "NORAD_CAT_ID": 31980, "ELEMENT_SET_NO": 999, "REV_AT_EPOCH": 89680, "BSTAR": 0.00074102624, "MEAN_MOTION_DOT": 5.73e-06, "MEAN_MOTION_DDOT": 0}, "tle": {"line1": "1 31980U 99025CPH 25347.49409608  .00000573  00000+0  74103-3 0  9999", "line2": "2 31980  97.6129  72.5932 0428069 111.0390 253.7071 13.32151441896800"}}, "geometry": {"type": "Point", "coordinates": [-107.90147119307238, -17.936219921960124]}}, {"type": "Feature", "properties": {"norad_id": 31984, "name": "FENGYUN 1C DEB", "group": "fengyun-1c-debris", "lat": -42.567406937982035, "lon": 166.4523658028453, "alt_km": 777.0732602014796, "timestamp": "2025-12-16T03:53:27.341285+00:00", "meta": {"OBJECT_NAME": "FENGYUN 1C DEB", "OBJECT_ID": "1999-025CPM", "EPOCH": "2025-12-14T20:28:02.996544", "MEAN_MOTION": 14.22962941, "ECCENTRICITY": 0.00626572, "INCLINATION": 98.558, "RA_OF_ASC_NODE": 353.13, "ARG_OF_PERICENTER": 221.1233, "MEAN_ANOMALY": 138.5215, "EPHEMERIS_TYPE": 0, "CLASSIFICATION_TYPE": "U", "NORAD_CAT_ID": 31984, "ELEMENT_SET_NO": 999, "REV_AT_EPOCH": 94403, "BSTAR": 0.00038353885, "MEAN_MOTION_DOT": 8.38e-06, "MEAN_MOTION_DDOT": 0}, "tle": {"line1": "1 31984U 99025CPM 25348.85281246  .00000838  00000+0  38354-3 0  9992", "line2": "2 31984  98.5580 353.1300 0062657 221.1233 138.5215 14.22962941944032"}}, "geometry": {"type": "Point", "coordinates": [166.4523658028453, -42.567406937982035]}}]}